[{"OBJECT_NAME":"STARLINK-32636","OBJECT_ID":"2024-231Q","EPOCH":"2026-03-09T16:48:55.764288","MEAN_MOTION":15.30208563,"ECCENTRICITY":0.00010433,"INCLINATION":53.1573,"RA_OF_ASC_NODE":219.3296,"ARG_OF_PERICENTER":53.6147,"MEAN_ANOMALY":306.495,"EPHEMERIS_TYPE":0,"CLASSIFICATION_TYPE":"U","NORAD_CAT_ID":62232,"ELEMENT_SET_NO":999,"REV_AT_EPOCH":7177,"BSTAR":0.0012223511,"MEAN_MOTION_DOT":0.00036029,"MEAN_MOTION_DDOT":0},{"OBJECT_NAME":"OBJECT D","OBJECT_ID":"2021-102D","EPOCH":"2026-03-09T14:47:14.426880","MEAN_MOTION":15.2846442,"ECCENTRICITY":0.0009157,"INCLINATION":97.3342,"RA_OF_ASC_NODE":112.2633,"ARG_OF_PERICENTER":187.6206,"MEAN_ANOMALY":172.4897,"EPHEMERIS_TYPE":0,"CLASSIFICATION_TYPE":"U","NORAD_CAT_ID":49398,"ELEMENT_SET_NO":999,"REV_AT_EPOCH":23880,"BSTAR":0.00046011,"MEAN_MOTION_DOT":0.00012697,"MEAN_MOTION_DDOT":0}]
